NUSAT-1 (FRESCO)        
1 41557U 16033B   22363.52694941  .00023179  00000+0  55941-3 0  9999
2 41557  97.3895 102.3431 0010126  43.0038  83.1151 15.41153402367356
BEESAT-4                
1 41619U 16040W   22363.41300625  .00021493  00000+0  57214-3 0  9999
2 41619  97.1904  49.3399 0008857 128.6010 231.6030 15.38180369350610
CAS-2T & KS-1Q          
1 41847U 16066G   22363.20569508  .00000844  00000+0  13620-3 0  9994
2 41847  98.5283  67.4662 0362102 347.2359  11.9841 14.38980997322356
NAYIF-1 (EO-88)         
1 42017U 17008BX  22363.40523161  .00028000  00000+0  62931-3 0  9991
2 42017  97.2437  67.4028 0002656 265.4260  94.6685 15.43304584327040
ZHUHAI-1 02 (CAS-4B)    
1 42759U 17034B   22363.44831231  .00006102  00000+0  34491-3 0  9996
2 42759  43.0187 336.6452 0009095  79.5178  64.1250 15.13704558305882
ZHUHAI-1 01 (CAS-4A)    
1 42761U 17034D   22363.40580084  .00006186  00000+0  34843-3 0  9995
2 42761  43.0178 335.5216 0009332  81.7353  57.0319 15.13806611305885
MAX VALIER SAT          
1 42778U 17036P   22363.06525498  .00010872  00000+0  36527-3 0  9993
2 42778  97.1819  37.6573 0009853   3.7295 356.4019 15.30959129306637
RADFXSAT (FOX-1B)       
1 43017U 17073E   22363.41389893  .00005087  00000+0  37713-3 0  9997
2 43017  97.6517 249.5569 0241373 268.5811  88.7744 14.83141003275998
FOX-1D (AO-92)          
1 43137U 18004AC  22363.40232427  .00013773  00000+0  41736-3 0  9995
2 43137  97.3502  77.1601 0007827  38.3187 321.8610 15.34230993276186
DIWATA-2B               
1 43678U 18084H   22363.36286504  .00001547  00000+0  15607-3 0  9997
2 43678  97.9959 139.3011 0009956  11.4089 348.7348 14.92592456226923
ES'HAIL 2               
1 43700U 18090A   22363.29034017  .00000147  00000+0  00000+0 0  9994
2 43700   0.0190 343.8758 0001505 336.1054 268.0510  1.00271759 14983
FOX-1CLIFF (AO-95)      
1 43770U 18099N   22363.44497795  .00003520  00000+0  30592-3 0  9994
2 43770  97.5973  64.6046 0013166 346.5954  13.4917 14.97556240222185
ITASAT 1                
1 43786U 18099AE  22363.49453962  .00002527  00000+0  22103-3 0  9999
2 43786  97.6009  65.6647 0014180 338.4355  21.6269 14.97553717222236
JY1SAT (JO-97)          
1 43803U 18099AX  22363.43353723  .00003367  00000+0  28724-3 0  9995
2 43803  97.5963  65.4444 0013969 335.4288  24.6268 14.98306747222257
UWE-4                   
1 43880U 18111E   22363.48828731  .00005219  00000+0  42908-3 0  9994
2 43880  97.6585 266.3876 0013273  38.7586 321.4587 14.99505799218915
NEXUS (FO-99)           
1 43937U 19003F   22363.31198624  .00017043  00000+0  47502-3 0  9994
2 43937  97.1109  29.5415 0017937 168.4719 191.6940 15.36674661219832
PSAT2 (NO-104)          
1 44354U 19036R   22363.76624131  .00198463  50191-5  75167-3 0  9996
2 44354  28.5168 236.5212 0118907  56.9443 304.2524 15.75899188195073
JAISAT-1                
1 44419U 19038F   22363.36304001  .00010301  00000+0  46226-3 0  9993
2 44419  97.6600 335.8016 0017616 170.0620 190.0967 15.21249623192644
DUCHIFAT-3              
1 44854U 19089C   22363.47587876  .00005242  00000+0  39011-3 0  9999
2 44854  36.9652  22.9097 0007176   0.3805 149.3113 15.02759188167264
CAS-6 (TIANQIN 1)       
1 44881U 19093C   22363.18466049  .00000788  00000+0  10589-3 0  9999
2 44881  97.8788  79.4700 0013484 272.9022  87.0677 14.81996793163614
RS-44 & BREEZE-KM R/B   
1 44909U 19096E   22363.25497789  .00000023  00000+0  52197-4 0  9990
2 44909  82.5217 100.8675 0216891 224.0446 134.3200 12.79717347140421
ORBITAL FACTORY 2 (OF-2)
1 45113U 19071C   22363.51504067  .00073556  00000+0  82675-3 0  9992
2 45113  51.6317 170.5051 0009601 184.6805 175.4101 15.61881788163660
HUSKYSAT-1 (HO-107)     
1 45119U 19071J   22363.04547997  .00052686  00000+0  68682-3 0  9998
2 45119  51.6320 175.5844 0009725 175.3406 184.7678 15.58133338163542
BY70-2                  
1 45857U 20042B   22363.19856450  .00010303  00000+0  12758-2 0  9992
2 45857  97.9418  78.4079 0009864 197.1686 162.9228 14.82876844134289
SALSAT                  
1 46495U 20068K   22363.43974777  .00003512  00000+0  24748-3 0  9996
2 46495  97.7526 305.1309 0015642 343.4830  16.5885 15.05586992123515
BY70-3                  
1 46839U 20079N   22363.65496858  .00058188  00000+0  85615-3 0  9992
2 46839  97.1768  74.3886 0003279 357.0312 166.8562 15.55260345120427
RADFXSAT-2 (AO-109)     
1 47311U 21002C   22363.52953241  .00012230  00000+0  42591-3 0  9999
2 47311  60.6847 345.9498 0038842  89.9624 270.5917 15.29380755108256
UVSQ-SAT                
1 47438U 21006AB  22363.41150517  .00007154  00000+0  35009-3 0  9991
2 47438  97.4123  58.4533 0010196 324.1101  35.9447 15.18449661106836
DIY-1 (ARDUIQUBE)       
1 47963U 21022AH  22363.40644907  .00026629  00000+0  11590-2 0  9998
2 47963  97.5167 263.2824 0013439 168.2027 191.9527 15.22128745 96500
XW-3 (CAS-9)            
1 50466U 21131B   22363.55188098  .00000316  00000+0  11771-3 0  9998
2 50466  98.5669  80.5756 0003485 288.0708  72.0099 14.38605526 52969
TEVEL-3                 
1 50988U 22002E   22363.37969559  .00011043  00000+0  55022-3 0  9990
2 50988  97.4589  67.2335 0010323 104.6014  26.0089 15.17687636 52940
TEVEL-8                 
1 50989U 22002F   22363.78896293  .00011083  00000+0  55295-3 0  9996
2 50989  97.4600  67.6761 0010266 103.0259  36.5637 15.17640241 53006
TEVEL-5                 
1 50998U 22002Q   22363.40119027  .00011100  00000+0  54396-3 0  9999
2 50998  97.4587  67.4773 0011747 100.5293  32.0697 15.18252453 52962
TEVEL-6                 
1 50999U 22002R   22363.44381699  .00011216  00000+0  54944-3 0  9997
2 50999  97.4585  67.5153 0011856 101.7401 269.2549 15.18261174 52970
TEVEL-1                 
1 51013U 22002AF  22363.38553850  .00010968  00000+0  54695-3 0  9994
2 51013  97.4583  67.2028 0010334 105.6865  25.6662 15.17656997 52948
TEVEL-7                 
1 51062U 22002CG  22363.43807772  .00010954  00000+0  54668-3 0  9994
2 51062  97.4598  67.3102 0010150 103.0573 269.4852 15.17632005 52950
TEVEL-4                 
1 51063U 22002CH  22363.44012308  .00010911  00000+0  54489-3 0  9993
2 51063  97.4602  67.3054 0010267 103.8481 268.7197 15.17611695 52954
TEVEL-2                 
1 51069U 22002CP  22363.30403326  .00011006  00000+0  54851-3 0  9997
2 51069  97.4585  67.1369 0010161 104.4725 323.0760 15.17681953 52931
GREENCUBE               
1 53106U 22080B   22354.08419093 -.00000003  00000+0  00000+0 0  9999
2 53106  70.1702  21.9397 0008914 226.9685 182.2049  6.42557326 10248
YUZGU 9 (RS3S)          
1 53308U 98067TT  22363.45025613  .00194627  00000+0  11171-2 0  9992
2 53308  51.6332  77.7027 0005829 326.5863  33.4769 15.77641072 25164
YUZGU 7 (RS1S)          
1 53309U 98067TU  22363.47782636  .00228712  00000+0  12352-2 0  9995
2 53309  51.6320  77.1241 0006425 328.1755  31.8857 15.78894315 25122
YUZGU 11 (RS5S)         
1 53310U 98067TV  22363.44802782  .00198416  00000+0  11302-2 0  9990
2 53310  51.6340  77.6872 0005766 323.1965  36.8639 15.77801057 25141
YUZGU 12 (RS6S)         
1 53311U 98067TW  22363.56599888  .00241006  00000+0  12203-2 0  9999
2 53311  51.6305  76.2069 0006166 332.7659  27.3018 15.80281420 25198
TSIOLKOVSKY-RYAZAN 1 (*)
1 53312U 98067TX  22363.48654331  .00215911  00000+0  11932-2 0  9990
2 53312  51.6306  77.1913 0006626 326.8534  33.2051 15.78418515 25114
TSIOLKOVSKY-RYAZAN 2 (*)
1 53313U 98067TY  22363.47995213  .00208906  00000+0  11497-2 0  9999
2 53313  51.6330  77.1506 0006411 330.0503  30.0131 15.78533270 25160
YUZGU 10 (RS4S)         
1 53321U 98067TZ  22363.49752014  .00203252  00000+0  11417-2 0  9991
2 53321  51.6341  77.2666 0005942 326.6245  33.4380 15.78097671 25164
RS29S (SXC3-2110 CYCLO*)
1 53373U 22096D   22363.80912699  .00016224  00000+0  59419-3 0  9995
2 53373  97.4286 264.4356 0003257  64.6919  20.9741 15.28094606 21738
RS32S (SXC3-212 MONITO*)
1 53374U 22096E   22363.80132390  .00014738  00000+0  54043-3 0  9994
2 53374  97.4278 264.4390 0003004  58.4922  29.2792 15.28078119 21732
RS34S (SXC3-218 KUZBAS*)
1 53375U 22096F   22363.42828096  .00012407  00000+0  46260-3 0  9991
2 53375  97.4278 264.0275 0003175  51.7724  37.1186 15.27567048 21677
RS23S (SXC3-21 UTMN)    
1 53376U 22096G   22363.62003865  .00013506  00000+0  50136-3 0  9991
2 53376  97.4284 264.2299 0003023  59.9872  28.3653 15.27694011 21705
RS28S (SXC3-214 MIET-A*)
1 53377U 22096H   22363.81692171  .00012845  00000+0  47844-3 0  9994
2 53377  97.4281 264.4259 0003061  57.0345  28.7302 15.27592866 21730
RS26S (KAI-1)           
1 53378U 22096J   22363.82360450  .00011312  00000+0  42520-3 0  9992
2 53378  97.4283 264.4093 0002869  48.0821  24.9959 15.27323523 21731
RS19S (SXC3-219 ISOI)   
1 53381U 22096M   22363.83560446  .00013129  00000+0  48114-3 0  9997
2 53381  97.4276 264.5444 0003093 331.9835 100.8136 15.28123680 21742
RS21S (CUBESX-HSE-2)    
1 53383U 22096P   22363.83145207  .00013346  00000+0  48799-3 0  9993
2 53383  97.4278 264.5525 0003227 331.3637 101.7712 15.28194906 21748
RS30S (SXC3-217 SIREN)  
1 53384U 22096Q   22363.57806191  .00012334  00000+0  45458-3 0  9996
2 53384  97.4278 264.2835 0003217 332.0907 112.0696 15.27951179 21701
RS20S (GEOSCAN-EDELVEIS)
1 53385U 22096R   22363.78865462  .00016982  00000+0  60286-3 0  9995
2 53385  97.4281 264.6106 0003425 330.9987 115.1111 15.29108613 21779
RS33S (SXC3-215 VIZARD) 
1 53386U 22096S   22363.80195532  .00020102  00000+0  69256-3 0  9998
2 53386  97.4276 264.7378 0003890 326.0091 106.8243 15.30050119 21776
CAS-5A (FO-118)         
1 54684U 22167C   22363.42817698  .00007194  00000+0  45770-3 0  9992
2 54684  97.5388 138.0737 0014270 194.1378 256.7176 15.09012924  3038
CAS-10                  
1 54816U 21035C   22363.63331686  .00093945  00000+0  10200-2 0  9991
2 54816  41.4774 109.0086 0007780 268.4333  91.5612 15.62395239  1682
